{
    "links": {
        "self": "http://www.neowsapp.com/rest/v1/neo/3869351?api_key=iIulBulltgU6a56xZRHN4H3l9WmuAYTsLGpBGhQ2"
    },
    "id": "3869351",
    "neo_reference_id": "3869351",
    "name": "(2019 SA7)",
    "designation": "2019 SA7",
    "nasa_jpl_url": "http://ssd.jpl.nasa.gov/sbdb.cgi?sstr=3869351",
    "absolute_magnitude_h": 24.4,
    "estimated_diameter": {
        "kilometers": {
            "estimated_diameter_min": 0.0350392641,
            "estimated_diameter_max": 0.0783501764
        },
        "meters": {
            "estimated_diameter_min": 35.0392641108,
            "estimated_diameter_max": 78.3501764334
        },
        "miles": {
            "estimated_diameter_min": 0.0217723826,
            "estimated_diameter_max": 0.0486845275
        },
        "feet": {
            "estimated_diameter_min": 114.9582192654,
            "estimated_diameter_max": 257.0543928497
        }
    },
    "is_potentially_hazardous_asteroid": false,
    "close_approach_data": [
        {
            "close_approach_date": "2019-09-28",
            "close_approach_date_full": "2019-Sep-28 12:37",
            "epoch_date_close_approach": 1569674220000,
            "relative_velocity": {
                "kilometers_per_second": "15.4056727421",
                "kilometers_per_hour": "55460.4218715172",
                "miles_per_hour": "34460.9493567769"
            },
            "miss_distance": {
                "astronomical": "0.1343584056",
                "lunar": "52.2654197784",
                "kilometers": "20099731.294356072",
                "miles": "12489393.8854229136"
            },
            "orbiting_body": "Earth"
        }
    ],
    "orbital_data": {
        "orbit_id": "3",
        "orbit_determination_date": "2019-10-05 06:19:53",
        "first_observation_date": "2019-09-28",
        "last_observation_date": "2019-10-05",
        "data_arc_in_days": 7,
        "observations_used": 34,
        "orbit_uncertainty": "9",
        "minimum_orbit_intersection": ".134107",
        "jupiter_tisserand_invariant": "4.513",
        "epoch_osculation": "2458755.5",
        "eccentricity": ".2571789641089717",
        "semi_major_axis": "1.438611843448173",
        "inclination": "28.19486833935433",
        "ascending_node_longitude": "189.6081208061402",
        "orbital_period": "630.2514795322228",
        "perihelion_distance": "1.068631139795274",
        "perihelion_argument": "132.6777611572329",
        "aphelion_distance": "1.808592547101072",
        "perihelion_time": "2458710.924511428502",
        "mean_anomaly": "25.46154417225583",
        "mean_motion": ".5712005630945836",
        "equinox": "J2000",
        "orbit_class": {
            "orbit_class_type": "AMO",
            "orbit_class_description": "Near-Earth asteroid orbits similar to that of 1221 Amor",
            "orbit_class_range": "1.017 AU < q (perihelion) < 1.3 AU"
        }
    },
    "is_sentry_object": false
}